,Schoolnumber,Name,Province,SchoolLevel,District,Grant_Class,latitude,longitude
329,2306,MAVHUDZI,Manicaland,Primary,Makoni,P3,-18.769431914119814,31.93669457508359
1206,4250,NEGOMO,Mashonaland Central,Primary,Guruve,P3,-16.514701914119815,30.74701457508359
2446,8364,CHIDZIMAMOTO,Mashonaland West,Primary,Hurungwe,P3,-16.973911914119814,29.34873457508359
1575,6174,RUKUNGUHWE,Mashonaland East,Primary,Murehwa,P3,-17.576561914119814,31.78529457508359
382,2366,CHATINDO BUHERA,Manicaland,Primary,Buhera,P3,-19.226211914119812,31.43124457508359
4147,12540,KENYANDAVU PRIMARY,Matabeleland North,Primary,Lupane,P3,-18.317791914119812,27.965884575083592
2172,7042,KURIMA,Mashonaland East,Primary,Chikomba,P3,-18.735131914119815,30.66114457508359
754,2791,INYATI MINE,Manicaland,Primary,Makoni,P3,-18.231911914119813,32.2425845750836
4099,12492,KAMATIVI,Matabeleland North,Primary,Hwange,P3,-18.309461914119815,27.040674575083592
2010,6698,ST COLUMBUS,Mashonaland East,Primary,Murehwa,P3,-18.004361914119812,31.824464575083592
3350,10688,KURAI PRIMARY,Masvingo,Primary,Gutu,P3,-19.765141914119813,31.81542457508359
611,2645,NEW YEARS GIFT,Manicaland,Primary,Chipinge,P3,-20.086731914119813,32.55338457508359
1112,4143,MUTONDWE,Mashonaland Central,Primary,Mt. Darwin,P3,-16.732791914119815,31.68427457508359
3742,12038,ST MARY,Matabeleland North,Primary,Hwange,P3,-18.367301914119814,26.60915457508359
5603,17936,CHISHUKU,Midlands,Primary,Chirumanzu,P3,-19.301591914119815,30.30961457508359
922,2977,RUJEKO,Manicaland,Primary,Makoni,P2,-18.550481914119814,32.09918457508359
2936,10195,MONDO PRIMARY,Masvingo,Primary,Gutu,P3,-19.470421914119814,31.53682457508359
4015,12407,NGAMO,Matabeleland North,Primary,Tsholotsho,P3,-19.137171914119815,27.44170457508359
2982,10241,DENGA ,Masvingo,Primary,Chivi,P3,-20.158001914119815,30.39867457508359
87,1105,SELBORNE ROUTLEDGE,Harare,Primary,Warren Park Mabelreign,P1,-17.825971914119815,31.01362457508359
4259,12694,MGOQO,Bulawayo,Primary,Mzilikazi,P2,-20.186091914119814,28.478934575083592
928,2983,MARAMBANYIKA,Manicaland,Primary,Buhera,P3,-19.513211914119815,31.96734457508359
3377,10716,CHIGUMISIRWA,Masvingo,Primary,Bikita,P3,-20.080481914119815,31.832354575083592
452,2458,MWANDIAMBIRA,Manicaland,Primary,Mutare,P3,-19.233791914119813,32.4633945750836
4533,14150,MAPATE,Matabeleland South,Primary,Gwanda,P3,-21.589561914119813,28.92757457508359
4964,16100,NHEMA ST FRANCIS,Midlands,Primary,Shurugwi,P3,-19.611131914119813,30.21434457508359
4336,12787,MOLO,Matabeleland North,Primary,Bubi,P3,-19.111531914119812,28.136584575083592
664,2700,MURINDASHAKA,Manicaland,Primary,Makoni,P3,-17.823921914119815,32.47524457508359
3485,10840,BENZI,Masvingo,Primary,Chiredzi,P3,-21.095601914119815,32.0003045750836
4110,12503,MATHENDELE,Matabeleland North,Primary,Nkayi,P3,-19.024391914119814,28.83651457508359
1404,4471,KANONGO,Mashonaland Central,Primary,Mbire,P3,-16.100571914119815,30.55455457508359
1877,6558,MARUMBI,Mashonaland East,Primary,Hwedza,P3,-19.058541914119814,31.84171457508359
4275,12714,NGWALONGWALO ,Bulawayo,Primary,Khami,P2,-20.168441914119814,28.47403457508359
5487,16845,SHUMBASHAVA,Midlands,Primary,Mberengwa,P3,-20.875521914119815,30.18785457508359
4463,14079,NKWALINI,Matabeleland South,Primary,Insiza,P3,-20.466601914119813,29.46925457508359
3648,11037,RATIDZO ZVIDOZVEVANHU,Masvingo,Primary,Chiredzi,P3,-20.940351914119812,31.65351457508359
1869,6550,MTORO,Mashonaland East,Primary,Chikomba,P3,-18.830801914119814,31.06923457508359
5455,16811,SIZANANI,Midlands,Primary,Gokwe South,P3,-18.375401914119813,28.69381457508359
2417,8331,MASHUMA,Mashonaland West,Primary,Hurungwe,P3,-16.924541914119814,29.26418457508359
3855,12231,ZINAPI,Matabeleland North,Primary,Lupane,P3,-18.774631914119812,27.71639457508359
1006,3904,St. Bartholomew Chiware,Manicaland,Primary,Makoni,P3,-18.667671914119815,32.0185945750836
5250,16570,MANYEPA,Midlands,Primary,Gokwe South,P3,-18.160101914119814,28.52361457508359
1921,6605,MARIRA,Mashonaland East,Primary,Mutoko,P3,-17.518901914119812,32.34092457508359
575,2608,CHIKWARIRO,Manicaland,Primary,Mutare,P3,-19.324911914119813,32.26925457508359
3168,10430,ZIKI,Masvingo,Primary,Bikita,P3,-20.227241914119812,31.82851457508359
2541,8488,GATSHE GATSHE,Mashonaland West,Primary,Kariba,P3,-16.784611914119814,28.94553457508359
4292,12732,THETSHANENI ,Matabeleland North,Primary,Tsholotsho,P3,-20.064791914119812,27.83289457508359
2591,8543,CHEDOPE,Mashonaland West,Primary,Hurungwe,P3,-16.990541914119813,29.37820457508359
4377,12829,KOKOLOZA,Matabeleland North,Primary,Binga,P3,-18.196611914119813,27.85063457508359
3788,12093,RIVERSIDE STIMULATION CEN,Bulawayo,Primary,Imbizo,P1,-20.215901914119815,28.64580457508359
2490,8414,ZVIMHONJA,Mashonaland West,Primary,Hurungwe,P3,-17.035531914119815,29.193934575083592
5035,16182,MAHINDI,Midlands,Primary,Mberengwa,P3,-20.597281914119815,30.39183457508359
5606,17940,GOODHOPE,Midlands,Primary,Chirumanzu,P3,-19.362861914119815,30.69068457508359
253,2069,VENGERE ,Manicaland,Primary,Makoni,P3,-18.545331914119814,32.101594575083595
1638,6294,RUPANGE,Mashonaland East,Primary,Murehwa,P3,-17.577111914119815,31.65412457508359
1573,6082,RUFARO,Mashonaland East,Primary,Murehwa,P3,-18.054861914119815,31.967864575083592
3784,12087,NKULUMANE,Bulawayo,Primary,Mzilikazi,P2,-20.144581914119815,28.52532457508359
181,1258,BUDIRIRO  3,Harare,Primary,Glenview Mufakose,P2,-17.901511914119812,30.90931457508359
4532,14149,MNYABETSI,Matabeleland South,Primary,Gwanda,P3,-21.596931914119814,29.07331457508359
3851,12227,LUPANE,Matabeleland North,Primary,Lupane,P3,-18.919321914119813,27.72963457508359
3443,10783,TSHOVANI,Masvingo,Primary,Chiredzi,P2,-21.000421914119812,32.111934575083595
1577,6176,MUSHIPE,Mashonaland East,Primary,Chikomba,P3,-19.011401914119812,31.66545457508359
5077,16387,MAPIRAVANA,Midlands,Primary,Chirumanzu,P3,-19.472861914119814,30.47896457508359
1930,6615,BVUMBURA,Mashonaland East,Primary,Chikomba,P3,-19.146211914119814,31.21323457508359
2920,10179,MAZETESE,Masvingo,Primary,Mwenezi,P3,-21.059321914119813,30.27719457508359
5444,16800,SIMCHEMBU 11,Midlands,Primary,Gokwe North,P3,-17.395981914119815,28.154424575083592
1959,6645,ZHEN JE,Mashonaland East,Primary,Chikomba,P3,-19.069481914119812,31.29827457508359
3737,12031,FAIRBRIDGE ,Bulawayo,Primary,Reigate,P3,-20.161761914119815,28.57273457508359
2853,9077,HURUNGWE  (NYANGAHWE),Mashonaland West,Primary,Hurungwe,P3,-16.472011914119815,29.58077457508359
3584,10964,MAVAMBO,Masvingo,Primary,Mwenezi,P3,-21.014531914119814,30.64136457508359
503,2527,CHIRAMBA,Manicaland,Primary,Chimanimani,P3,-19.569321914119815,32.5910545750836
4788,14492,MASOTSHA,Matabeleland South,Primary,Bulilima,P3,-20.370121914119814,28.30046457508359
4865,14591,SIBUNDILE,Matabeleland South,Primary,Matobo,P3,-20.687841914119815,28.59535457508359
5452,16808,CHEMBA,Midlands,Primary,Gokwe South,P3,-18.485281914119813,28.21976457508359
1470,5142,PANHOWE,Mashonaland Central,Primary,Mazowe,P3,-17.607881914119815,30.85735457508359
1591,6191,NZUMA ST HELEN,Mashonaland East,Primary,Chikomba,P3,-19.011261914119814,31.38909457508359
4965,16101,MAGUMISE,Midlands,Primary,Shurugwi,P3,-19.554141914119814,30.23168457508359
4026,12418,DINGANI,Matabeleland North,Primary,Hwange,P3,-18.531411914119815,26.87134457508359
671,2707,MWADEWEKUNZE,Manicaland,Primary,Mutare,P3,-19.274251914119812,32.486754575083594
4212,12621,MATHAMBO ,Matabeleland North,Primary,Lupane,P3,-19.146571914119814,28.16166457508359
3758,12056,KUMALO,Bulawayo,Primary,Bulawayo Central,P1,-20.160021914119813,28.60715457508359
1649,6305,CHITATE,Mashonaland East,Primary,Murehwa,P3,-17.685871914119815,31.86992457508359
33,1037,GLEN VIEW 2,Harare,Primary,Glenview Mufakose,P2,-17.908051914119813,30.937164575083592
2788,9004,NDARE,Mashonaland West,Primary,Zvimba,P3,-17.162801914119814,30.42847457508359
964,3020,CHEGORE,Manicaland,Primary,Mutare,P3,-19.290381914119813,32.290144575083595
2545,8492,BUMBE,Mashonaland West,Primary,Mhondoro Ngezi,P3,-18.596011914119813,30.40428457508359
3495,10850,BARAMANZA,Masvingo,Primary,Zaka,P3,-20.330881914119814,31.10119457508359
1261,4312,BELGOWNIE,Mashonaland Central,Primary,Mazowe,P3,-17.528931914119813,30.85676457508359
4287,12727,MAKOKOMBA PRY,Matabeleland North,Primary,Umguza,P3,-19.860441914119814,28.17756457508359
2148,6950,KUTSOKODEKA ,Mashonaland East,Primary,UMP,P3,-17.110521914119815,31.84385457508359
2836,9057,SLAUGHTER,Mashonaland West,Primary,Makonde,P3,-17.188341914119814,29.86897457508359
3649,11038,RATIDZO KUBATANA,Masvingo,Primary,Chiredzi,P3,-20.984261914119813,31.57292457508359
5484,16841,DAMBAMAZURA,Midlands,Primary,Gokwe North,P3,-17.471211914119813,28.71389457508359
1461,5132,HARIANA,Mashonaland Central,Primary,Mazowe,P3,-17.100571914119815,30.86476457508359
2088,6794,ST MICHAEL,Mashonaland East,Primary,Goromonzi,P3,-18.076481914119814,31.24308457508359
708,2744,MANGATU,Manicaland,Primary,Mutare,P3,-19.472631914119813,32.40544457508359
5131,16442,MURANDU,Midlands,Primary,Gokwe South,P3,-18.049451914119814,29.06410457508359
2357,8263,NYAMASHESHA,Mashonaland West,Primary,Chegutu,P3,-18.533601914119814,30.72345457508359
4975,16111,GOKWE ST AGNES,Midlands,Primary,Gokwe South,P2,-18.213871914119814,28.97450457508359
1896,6577,NYAMANDE,Mashonaland East,Primary,Mudzi,P3,-17.220021914119812,32.698474575083594
5451,16807,SOMOZA,Midlands,Primary,Kwekwe,P3,-18.837811914119815,29.16701457508359
233,2027,GAZA,Manicaland,Primary,Chipinge,P2,-20.196061914119813,32.628414575083596
684,2720,CHAPANDUKA,Manicaland,Primary,Buhera,P3,-19.690441914119813,32.14375457508359
3547,10902,CHISHINYA,Masvingo,Primary,Chiredzi,P3,-22.175271914119815,31.354494575083592
850,2891,HANGAIWA,Manicaland,Primary,Makoni,P3,-17.829021914119814,32.22703457508359
4726,14429,MALIBENG,Matabeleland South,Primary,BeitBridge,P3,-21.835201914119814,29.26576457508359
2393,8302,MURIEL MINE,Mashonaland West,Primary,Zvimba,P3,-17.241031914119812,30.58387457508359
2064,6767,CHIHORO,Mashonaland East,Primary,Seke,P3,-18.515611914119813,30.96874457508359
2265,8115,GAMBIZA,Mashonaland West,Primary,Sanyati,P3,-17.932051914119814,29.39536457508359
612,2646,RATELSHOEK,Manicaland,Primary,Chipinge,P3,-20.253041914119812,32.7858545750836
3858,12234,KWESEMVUBU,Matabeleland North,Primary,Lupane,P3,-18.816231914119815,28.21961457508359
4326,12776,BATTLEFIELDS,Matabeleland North,Primary,Bubi,P3,-19.902501914119814,28.78922457508359
2043,6746,GANYAMBADZE,Mashonaland East,Primary,Mutoko,P3,-17.495431914119813,31.992894575083593
4591,14279,NKEDILE,Matabeleland South,Primary,Mangwe,P3,-21.202091914119812,27.933694575083592
2288,8156,CAM AND MOTOR,Mashonaland West,Primary,Mhondoro Ngezi,P2,-18.314951914119813,29.96295457508359
4097,12490,SIKUMBI,Matabeleland North,Primary,Hwange,P3,-18.004051914119813,26.16020457508359
1077,4049,BATSIRANAI,Mashonaland Central,Primary,Shamva,P3,-17.114461914119815,31.680314575083592
3422,10762,MKWASINE,Masvingo,Primary,Chiredzi,P3,-20.830461914119812,31.868574575083592
4779,14483,CHASWINGO,Matabeleland South,Primary,BeitBridge,P3,-22.048831914119813,30.501264575083592
442,2448,ZAMBUKO,Manicaland,Primary,Makoni,P3,-18.899971914119813,31.997824575083587
5059,16206,MPANDASHANGO,Midlands,Primary,Mberengwa,P3,-20.790601914119815,30.11300457508359
2433,8349,NYABANGO,Mashonaland West,Primary,Sanyati,P3,-17.810011914119812,29.46809457508359
1559,6024,MT ST MARYS,Mashonaland East,Primary,Hwedza,P3,-18.733451914119815,31.67133457508359
3408,10748,UTSINDA ,Masvingo,Primary,Chivi,P3,-20.216361914119812,30.370164575083592
5053,16200,MAKUVA  ,Midlands,Primary,Mberengwa,P3,-20.895271914119814,30.05906457508359
2285,8153,ST ANDREW'S CHIPASHU,Mashonaland West,Primary,Chegutu,P3,-18.286011914119815,30.555134575083592
2845,9069,DESIST,Mashonaland West,Primary,Hurungwe,P3,-17.203481914119813,29.56361457508359
2273,8140,ST BARNABAS CHIRAU,Mashonaland West,Primary,Zvimba,P3,-17.633531914119814,30.09668457508359
3956,12346,LUPOTE,Matabeleland North,Primary,Hwange,P3,-18.513201914119815,26.95805457508359
1288,4343,PIMENTO PARK,Mashonaland Central,Primary,Bindura,P2,-17.316601914119815,31.18121457508359
804,2841,ZVEKARE,Manicaland,Primary,Buhera,P3,-19.566561914119813,31.89881457508359
244,2048,JOHN COWIE,Manicaland,Primary,Makoni,P1,-18.535041914119812,32.114804575083596
852,2895,NDAPETWA,Manicaland,Primary,Chimanimani,P3,-19.847611914119813,32.575784575083595
2928,10187,GONYE ,Masvingo,Primary,Gutu,P3,-19.679721914119813,31.41392457508359
2738,8953,WESTVIEW,Mashonaland West,Primary,Sanyati,P2,-18.332041914119813,29.88352457508359
3042,10301,MUKOROVERWA,Masvingo,Primary,Gutu,P3,-19.569111914119812,31.130014575083592
2398,8307,MUDZIMU,Mashonaland West,Primary,Hurungwe,P3,-17.091871914119814,29.30792457508359
3079,10338,MUTYA PRIMARY,Masvingo,Primary,Masvingo,P3,-20.292801914119813,31.05561457508359
4247,12682,MASIYEPHAMBILI,Bulawayo,Primary,Imbizo,P1,-20.172581914119814,28.624674575083592
66,1077,MUTASA  ,Harare,Primary,High Glen,P2,-17.902371914119815,30.97307457508359
191,1268,KUWANGIRA  ,Harare,Primary,High Glen,P3,-17.893361914119815,30.97619457508359
3504,10859,MAREGEDZE,Masvingo,Primary,Gutu,P3,-19.601361914119813,31.18611457508359
566,2599,CHIRONGA,Manicaland,Primary,Makoni,P3,-18.508331914119815,31.96677457508359
906,2961,MATIKWA,Manicaland,Primary,Chipinge,P3,-20.813861914119812,32.259234575083596
2306,8200,GAVAZA,Mashonaland West,Primary,Chegutu,P3,-18.423261914119813,30.59153457508359
887,2942,PFUMOIGURU,Manicaland,Primary,Makoni,P3,-18.133381914119813,32.198634575083595
4554,14171,SWEREKI,Matabeleland South,Primary,BeitBridge,P3,-21.862641914119813,29.41044457508359
4098,12491,BINGA PRIMARY,Matabeleland North,Primary,Binga,P3,-17.622421914119812,27.34179457508359
4840,14558,MINDA,Matabeleland South,Primary,Matobo,P2,-21.069961914119812,28.444404575083592
2146,6946,BWANYA,Mashonaland East,Primary,Mutoko,P3,-17.381431914119812,32.4203245750836
1357,4422,TSAMVI,Mashonaland Central,Primary,Mt. Darwin,P3,-16.731961914119815,31.40768457508359
1635,6291,KAMBARAMI,Mashonaland East,Primary,Murehwa,P3,-17.629051914119813,31.72081457508359
1411,4482,MUTEMAKUNGU,Mashonaland Central,Primary,Muzarabani,P3,-16.343481914119813,31.34404457508359
882,2937,NGWENA,Manicaland,Primary,Makoni,P3,-17.845871914119815,32.3576445750836
2313,8209,ST GABRIEL NYUNDO,Mashonaland West,Primary,Chegutu,P3,-18.348951914119812,30.63624457508359
3514,10869,RUTEDZE PRIMARY,Masvingo,Primary,Chivi,P3,-20.178391914119814,30.24936457508359
3189,10452,MARONGERE PRIMARY,Masvingo,Primary,Masvingo,P3,-19.747401914119813,30.85848457508359
4363,12815,TAME,Matabeleland North,Primary,Bubi,P3,-19.437171914119812,28.93589457508359
4152,12545,NDAMULENI ,Matabeleland North,Primary,Lupane,P3,-18.933231914119812,27.93387457508359
5394,16718,CHARAMA,Midlands,Primary,Gokwe South,P3,-18.054571914119812,28.40862457508359
1923,6607,CHIKUKWA,Mashonaland East,Primary,Mutoko,P3,-17.289271914119812,32.54385457508359
475,2491,MUNDENDA,Manicaland,Primary,Mutasa,P3,-18.801441914119813,32.547444575083595
1284,4339,STORIS GOLDEN SHAFT,Mashonaland Central,Primary,Mazowe,P3,-17.520241914119815,30.93129457508359
1735,6412,PARIREWA,Mashonaland East,Primary,Goromonzi,P3,-17.570631914119815,31.16135457508359
5159,16470,SIBOLISE,Midlands,Primary,Shurugwi,P3,-19.560111914119812,30.16514457508359
2740,8955,LUWANA PRIMARY ,Mashonaland West,Primary,Sanyati,P3,-18.363661914119813,29.68059457508359
2807,9026,DOMA SAFARI,Mashonaland West,Primary,Makonde,P3,-16.442631914119815,30.05791457508359
1800,6479,KUDYARAWANZA,Mashonaland East,Primary,Seke,P3,-18.071361914119812,31.07167457508359
4425,14041,TSHONGWE,Matabeleland South,Primary,Gwanda,P3,-21.285131914119813,28.79891457508359
2553,8500,CHIEDZA,Mashonaland West,Primary,Sanyati,P3,-18.117741914119815,29.42987457508359
4673,14376,MAYEMBE,Matabeleland South,Primary,Bulilima,P3,-20.175491914119814,27.964754575083592
5560,17034,ZVOI,Midlands,Primary,Zvishavane,P3,-20.246181914119813,30.09983457508359
2099,6806,MASUNZWA,Mashonaland East,Primary,UMP,P3,-16.790491914119812,32.374184575083596
40,1044,GREENGROVE,Harare,Primary,Mabvuku Tafara,P1,-17.832851914119814,31.109194575083592
2675,8637,TATEGURU,Mashonaland West,Primary,Makonde,P3,-16.919851914119814,30.029424575083592
5519,16889,DOHWA (MHONDONGORI),Midlands,Primary,Zvishavane,P3,-20.277131914119813,29.77560457508359
3620,11005, BASI,Masvingo,Primary,Chiredzi,P3,-21.084361914119814,31.23523457508359
2307,8201,ST KIZITO MAKAURE,Mashonaland West,Primary,Chegutu,P3,-18.474411914119813,30.62389457508359
2429,8344,KAVAYA,Mashonaland West,Primary,Hurungwe,P3,-17.199201914119815,29.366224575083592
2127,6915,CHINGAMUKA,Mashonaland East,Primary,Mudzi,P3,-16.863181914119814,32.54396457508359
411,2395,NESHAVA PRIMARY,Manicaland,Primary,Buhera,P3,-19.257941914119815,31.67664457508359
3309,10647,GOMO PRIMARY,Masvingo,Primary,Chivi,P3,-20.179561914119812,30.152924575083592
1052,3954,GOKORO,Manicaland,Primary,Buhera,P3,-19.195421914119812,31.51266457508359
405,2389,NDAWANA PRIMARY,Manicaland,Primary,Buhera,P3,-19.152361914119815,31.53687457508359
3505,10860,UTEKE,Masvingo,Primary,Bikita,P3,-20.184721914119812,31.96226457508359
2299,8192,KATSVAMUTIMA,Mashonaland West,Primary,Zvimba,P3,-17.861471914119814,30.237934575083592
5043,16190,CHIWARA,Midlands,Primary,Mberengwa,P3,-20.745101914119815,30.33604457508359
2933,10192,MACHINGAMBI,Masvingo,Primary,Gutu,P3,-19.493301914119815,31.46202457508359
2573,8520,CHIBARA,Mashonaland West,Primary,Hurungwe,P3,-16.593981914119812,29.89478457508359
3861,12239,MAKHOVULA,Matabeleland North,Primary,Lupane,P3,-18.922101914119814,27.85645457508359
118,1140,SIR WILFRED ANSON,Harare,Primary,Mbare Hatfield,P2,-17.848711914119814,31.09196457508359
4495,14112,WABAYI,Matabeleland South,Primary,Gwanda,P3,-20.707351914119812,28.790024575083592
834,2871,MAREWO,Manicaland,Primary,Mutare,P3,-19.317031914119813,32.232414575083595
1238,4286,MANAME,Mashonaland Central,Primary,Rushinga,P3,-16.520681914119812,31.93494457508359
740,2777,MABHIZA PRIMARY,Manicaland,Primary,Chipinge,P3,-20.716711914119813,32.25615457508359
1128,4163,CHAWANDA,Mashonaland Central,Primary,Mt. Darwin,P3,-16.735601914119815,31.65284457508359
2997,10256,MADZIVIRE,Masvingo,Primary,Chivi,P3,-20.814621914119815,30.77606457508359
5100,16410,GURAMATUNHU,Midlands,Primary,Chirumanzu,P3,-19.632961914119814,30.44601457508359
1613,6214,ST MARTIN,Mashonaland East,Primary,Marondera,P3,-18.377711914119814,31.69883457508359
1936,6622,SOWA,Mashonaland East,Primary,UMP,P3,-17.017981914119815,32.14418457508359
855,2909,PEDZISAI,Manicaland,Primary,Buhera,P3,-19.669751914119814,31.86674457508359
5561,17036,MAMHANGWA,Midlands,Primary,Gokwe South,P3,-17.695601914119813,28.53921457508359
2520,8447,UMZURURU,Mashonaland West,Primary,Zvimba,P3,-17.756121914119813,30.75882457508359
4641,14343,SIMBUMBUMBU,Matabeleland South,Primary,Gwanda,P3,-20.754741914119812,28.755764575083592
1825,6505,SADZA,Mashonaland East,Primary,Chikomba,P3,-18.883151914119814,31.44726457508359
370,2354,MUSHARU,Manicaland,Primary,Mutare,P3,-19.213811914119812,32.216944575083595
4171,12564,CHUUZYA PRIMARY,Matabeleland North,Primary,Binga,P3,-18.067651914119814,27.88702457508359
4179,12572,KAMOMBO PRIMARY,Matabeleland North,Primary,Binga,P3,-18.470511914119815,27.36792457508359
212,1407,ST MARY'S EARLY LEARNING ,Harare,Primary,Chitungwiza,P2,-17.999781914119815,31.04671457508359
1456,5127,CHADDESLEY,Mashonaland Central,Primary,Mazowe,P3,-17.278471914119812,30.78863457508359
651,2686,MAPONDE,Manicaland,Primary,Mutare,P3,-19.320571914119814,32.19432457508359
3384,10723,TURGWI,Masvingo,Primary,Bikita,P3,-20.337141914119815,31.70671457508359
1960,6646,MATIRIGE,Mashonaland East,Primary,Chikomba,P3,-18.668731914119814,31.33791457508359
3834,12140,ST. WILFRED,Matabeleland North,Primary,Tsholotsho,P3,-19.528931914119813,27.07000457508359
4125,12518,MAHLOTOVA PRIMARY,Matabeleland North,Primary,Umguza,P3,-19.799991914119815,28.451624575083592
1121,4153,MUPFURUDZI,Mashonaland Central,Primary,Shamva,P3,-17.061631914119815,31.381984575083592
593,2627,CHIKUKWA,Manicaland,Primary,Chimanimani,P3,-19.690501914119814,32.91430457508359
878,2933,MAGADZIRE PRIMARY,Manicaland,Primary,Nyanga,P3,-18.195211914119813,32.950534575083594
1783,6462,ANDERSON,Mashonaland East,Primary,Hwedza,P3,-18.988151914119815,31.90763457508359
320,2286,CHIRARWE,Manicaland,Primary,Mutasa,P3,-18.528331914119814,32.59639457508359
4254,12689,SIGOMBE,Bulawayo,Primary,Mzilikazi,P2,-20.186671914119813,28.49946457508359
5599,17932,BARU KUSHINGA PRIMARY,Midlands,Primary,Chirumanzu,P3,-19.007621914119813,30.53780457508359
2435,8351,SENGWE,Mashonaland West,Primary,Hurungwe,P3,-16.901831914119814,29.19938457508359
3822,12127,GOMOZA,Matabeleland North,Primary,Lupane,P3,-18.726781914119815,28.19783457508359
2286,8154,ST LUCY MUKARATI,Mashonaland West,Primary,Mhondoro Ngezi,P3,-18.549331914119815,30.47062457508359
4114,12507,MAXIM HILL PRIMARY,Matabeleland North,Primary,Umguza,P3,-20.051661914119812,28.72588457508359
3276,10614,CHIDYAMAKONO  PRIMARY,Masvingo,Primary,Chivi,P3,-20.257501914119814,30.30086457508359
1786,6465,GUMBONZVANDA,Mashonaland East,Primary,Hwedza,P3,-18.695411914119813,31.67026457508359
2047,6750,TONGOGARA,Mashonaland East,Primary,Mutoko,P3,-17.633361914119813,32.074264575083596
1552,6008,BEATRICE GOVERNMENT,Mashonaland East,Primary,Seke,P3,-17.929901914119814,30.95634457508359
2116,6833,CHIRINDA,Mashonaland East,Primary,Murehwa,P3,-17.945061914119815,31.97575457508359
4317,12767,SYDNEY MALUNGA,Matabeleland North,Primary,Tsholotsho,P3,-19.999051914119814,27.97306457508359
5095,16405,MBOMBELA ST MICHAELS,Midlands,Primary,Kwekwe,P3,-18.910651914119814,29.05892457508359
2760,8975,LINCOLN,Mashonaland West,Primary,Mhondoro Ngezi,P3,-18.391111914119815,30.02579457508359
2460,8380,MAROWA KRAAL,Mashonaland West,Primary,Chegutu,P3,-18.179771914119815,30.65041457508359
2605,8558,DZIKAMIDZI,Mashonaland West,Primary,Zvimba,P3,-17.866161914119814,30.11751457508359
4764,14467,MATULUNGUNDU,Matabeleland South,Primary,Gwanda,P3,-21.580321914119814,28.88614457508359
5160,16471,TUMBA,Midlands,Primary,Shurugwi,P3,-19.711861914119815,30.20309457508359
2569,8516,CHITENJE,Mashonaland West,Primary,Hurungwe,P3,-16.613971914119812,29.78968457508359
2976,10235,ZUNGA ,Masvingo,Primary,Chivi,P3,-20.744391914119813,30.825304575083592
4930,16036,SACRED HEART,Midlands,Primary,Gokwe South,P3,-18.546991914119815,28.50908457508359
400,2384,NDYARIMA,Manicaland,Primary,Buhera,P3,-19.503111914119813,31.695614575083592
1120,4152,MADZIWA  RURAL,Mashonaland Central,Primary,Shamva,P3,-16.921821914119814,31.51406457508359
1946,6632,MASHAMBAMUTO,Mashonaland East,Primary,Chikomba,P3,-18.982781914119812,31.21381457508359
2825,9044,MUSOROMUCHENA,Mashonaland West,Primary,Makonde,P3,-17.364901914119812,29.92098457508359
2730,8944,MUPFURE  PRIMARY,Mashonaland West,Primary,Chegutu,P3,-18.098431914119814,30.18774457508359
3726,12018,GEORGE SILUNDIKA ,Matabeleland North,Primary,Umguza,P3,-19.951841914119814,28.17877457508359
737,2774,ST JUDES PRY,Manicaland,Primary,Makoni,P3,-18.725141914119813,32.14810457508359
5201,16518,CHIREYA ST DOMINIS,Midlands,Primary,Gokwe North,P3,-17.525741914119813,28.59870457508359
1967,6654,THORNCROFT PARK,Mashonaland East,Primary,Goromonzi,P3,-17.897771914119815,31.24126457508359
4995,16135,UMLALA ,Midlands,Primary,Kwekwe,P3,-18.922231914119813,30.00176457508359
64,1075,MOFFAT,Harare,Primary,Mbare Hatfield,P3,-17.850061914119813,31.04166457508359
1444,5111,CHIDIKAMWEDZI PRI,Mashonaland Central,Primary,Muzarabani,P3,-16.805651914119814,30.94481457508359
4069,12461,JOSHUA MQABUKO NKOMO INTE,Bulawayo,Primary,Reigate,P3,-20.014851914119813,28.61310457508359
5041,16188,CHOMUNYAKA,Midlands,Primary,Mberengwa,P3,-20.724111914119813,30.16974457508359
4494,14111,TUDI NUMBER 1,Matabeleland South,Primary,Matobo,P3,-21.331021914119813,28.56607457508359
1614,6215,ST JOHN MAPFUMO,Mashonaland East,Primary,Goromonzi,P3,-17.755381914119813,31.18264457508359
3159,10421,NGONDYORE,Masvingo,Primary,Bikita,P3,-20.141281914119812,31.57721457508359
2120,6837,ARIEL,Mashonaland East,Primary,Goromonzi,P1,-17.867671914119814,31.27659457508359
2578,8525,MUNHONDO,Mashonaland West,Primary,Zvimba,P3,-17.649811914119812,30.47401457508359
3470,10825,GWAMANJOMA,Masvingo,Primary,Masvingo,P3,-20.552711914119815,30.96158457508359
4291,12731,CHAMABONDO,Matabeleland North,Primary,Hwange,P2,-18.074151914119813,25.73943
5378,16701,CHIDAMOYO,Midlands,Primary,Gokwe South,P3,-18.119231914119812,29.04953457508359
3571,10943,MAKUMIRE PRIMARY SCHOOL,Masvingo,Primary,Zaka,P3,-20.527481914119814,31.53254457508359
2021,6709,CHISVO,Mashonaland East,Primary,Mudzi,P3,-16.962231914119812,32.344764575083595
2025,6714,HATIDANI,Mashonaland East,Primary,Goromonzi,P3,-17.951251914119812,31.329064575083592
2415,8329,KANYATI,Mashonaland West,Primary,Hurungwe,P3,-16.970491914119815,29.23058457508359
3268,10605,SANGWE,Masvingo,Primary,Chiredzi,P3,-20.823981914119813,32.16594457508359
5157,16468,MUDZONGWE,Midlands,Primary,Gokwe South,P3,-18.076521914119812,29.096234575083592
2003,6691,RUZAWI,Mashonaland East,Primary,Marondera,P2,-18.252691914119815,31.51805457508359
2444,8362,KASANZE,Mashonaland West,Primary,Zvimba,P3,-17.797301914119814,30.15100457508359
1972,6659,MAPOMBO,Mashonaland East,Primary,Mudzi,P3,-17.239651914119815,32.6393845750836
1178,4216,DANDAMERA,Mashonaland Central,Primary,Mazowe,P3,-17.371291914119812,30.927984575083592
1091,4103,CHIFAMBA,Mashonaland Central,Primary,Guruve,P3,-16.861461914119815,30.65324457508359
2937,10196,MUCHEKAYAORA,Masvingo,Primary,Gutu,P3,-19.776731914119814,31.71408457508359
5065,16212,GARENYAMA,Midlands,Primary,Mberengwa,P3,-20.893171914119815,30.30530457508359
948,3004,CHICHICHI,Manicaland,Primary,Chipinge,P3,-20.017831914119814,32.581804575083595
515,2541,HOT SPRINGS,Manicaland,Primary,Chimanimani,P3,-19.643461914119815,32.47799457508359
4427,14043,TSHUNKUNYANE,Matabeleland South,Primary,Insiza,P3,-20.333271914119813,29.318934575083592
1405,4472,KUGOTSI,Mashonaland Central,Primary,Guruve,P3,-16.746351914119813,30.70063457508359
3177,10440,GUMBU PRIMARY,Masvingo,Primary,Zaka,P3,-20.200281914119813,31.54202457508359
4382,12871,NZOVUNDE,Matabeleland North,Primary,Binga,P3,-18.164781914119814,27.06813457508359
843,2884,CLARE,Manicaland,Primary,Makoni,P3,-18.862641914119813,32.246384575083596
3143,10403,GWIRA PRIMARY,Masvingo,Primary,Masvingo,P3,-20.476301914119812,30.79220457508359
5494,16853,BELLEVIEW,Midlands,Primary,Gweru,P3,-19.140001914119814,29.53907457508359
571,2604,CHIUNYA,Manicaland,Primary,Makoni,P3,-18.524851914119814,31.87809457508359
5247,16567,MATETA 2,Midlands,Primary,Gokwe South,P3,-18.398281914119814,28.502104575083592
658,2693,JOMBE ST PETER,Manicaland,Primary,Mutasa,P3,-18.614281914119815,32.71489457508359
79,1091,RUSVINGO  PRIMARY,Harare,Primary,High Glen,P2,-17.898141914119815,30.96493457508359
2407,8317,MATAU,Mashonaland West,Primary,Hurungwe,P3,-16.975001914119815,29.19838457508359
2584,8533,SUNGWI,Mashonaland West,Primary,Hurungwe,P3,-17.135881914119814,29.768714575083592
3627,11013,CHITEZANI PRY,Masvingo,Primary,Chiredzi,P3,-21.168841914119813,31.97892457508359
2364,8270,MADZORERA,Mashonaland West,Primary,Zvimba,P3,-17.840981914119812,30.21968457508359
207,1400,HAPPY PRIMARY,Harare,Primary,Northern Central,P1,-17.748511914119813,31.00066457508359
1161,4198,CHIMANIKIRE,Mashonaland Central,Primary,Guruve,P3,-16.733311914119813,30.78136457508359
1049,3951,BIRCHENOUGH BRIDGE,Manicaland,Primary,Buhera,P3,-19.948251914119815,32.295804575083594
5070,16338,NYAKWATI ,Midlands,Primary,Kwekwe,P3,-18.963231914119813,29.017414575083592
1859,6540,GOROMONZI COMMITTEE,Mashonaland East,Primary,Goromonzi,P3,-17.868211914119815,31.346984575083592
1678,6340,TAREWA,Mashonaland East,Primary,Mutoko,P3,-17.218101914119814,32.19629457508359
5500,16859,MARIAN  EVORA,Midlands,Primary,Mberengwa,P3,-20.604501914119815,30.37460457508359
2472,8393,TAWSTOCK,Mashonaland West,Primary,Sanyati,P3,-18.089221914119815,29.90452457508359
2555,8502,MAMVURAMACHENA,Mashonaland West,Primary,Sanyati,P3,-18.110641914119814,29.62610457508359
4889,14620,ZINDELE,Matabeleland South,Primary,Gwanda,P3,-21.218611914119812,29.197024575083592
2102,6810,DZIVARETSANGA,Mashonaland East,Primary,Mudzi,P3,-17.072441914119814,32.6531545750836
3213,10549,MUSHAVA,Masvingo,Primary,Mwenezi,P3,-21.076031914119813,30.58730457508359
5275,16595,MSALA,Midlands,Primary,Gokwe South,P3,-18.518441914119812,28.04234457508359
913,2968,MUKUTE,Manicaland,Primary,Makoni,P3,-17.961271914119813,32.1212545750836
5141,16452,MAKULAMBILA,Midlands,Primary,Gweru,P3,-19.283151914119813,29.358534575083592
23,1027,DUDZAI,Harare,Primary,Chitungwiza,P2,-18.020471914119813,31.06298457508359
2462,8382,MARIGUMURA PRIMARY,Mashonaland West,Primary,Chegutu,P3,-18.396781914119813,30.73282457508359
2975,10234,VURAVHI ,Masvingo,Primary,Chivi,P3,-20.231501914119814,30.45473457508359
2012,6700,GRAND CHASE,Mashonaland East,Primary,Marondera,P3,-18.042551914119812,31.50488457508359
3319,10657,CHOMURUVATI  PRIMARY,Masvingo,Primary,Chivi,P3,-20.742561914119815,30.52484457508359
1230,4278,GATU,Mashonaland Central,Primary,Muzarabani,P3,-16.724811914119815,31.09911457508359
5427,16781,RONGA RONGA,Midlands,Primary,Gokwe South,P3,-18.241611914119815,28.210454575083592
2297,8190,MHANDU,Mashonaland West,Primary,Zvimba,P3,-17.738971914119812,30.11203457508359
43,1047,HAIG PARK,Harare,Primary,Warren Park Mabelreign,P1,-17.801361914119813,30.97347457508359
2092,6798,TAFADZWA,Mashonaland East,Primary,Marondera,P3,-18.238761914119813,31.77635457508359
3445,10785,MURRAY MACDOUGALL,Masvingo,Primary,Chiredzi,P1,-21.035031914119813,31.43513457508359
1396,4463,MUTASA,Mashonaland Central,Primary,Mt. Darwin,P3,-16.402401914119814,31.57312457508359
1214,4261,MUSHONGAHANDE,Mashonaland Central,Primary,Guruve,P3,-16.267101914119813,30.29384457508359
4144,12537,KATSHANA PRIMARY,Matabeleland North,Primary,Lupane,P3,-18.708051914119814,28.025484575083592
4111,12504,DONGAMUZI PRIMARY,Matabeleland North,Primary,Lupane,P3,-18.416561914119814,27.44545457508359
541,2574,BUMHIRA PRIMARY,Manicaland,Primary,Nyanga,P3,-17.875951914119813,32.9280445750836
4090,12483,MAKHASANE PRIMARY,Matabeleland North,Primary,Nkayi,P3,-18.657721914119815,29.01368457508359
2234,8019,EIFFEL FLATS,Mashonaland West,Primary,Mhondoro Ngezi,P1,-18.317601914119813,29.96953457508359
4072,12464,NONO,Matabeleland North,Primary,Lupane,P3,-18.504971914119814,27.71314457508359
2702,8911,MANHANGA,Mashonaland West,Primary,Kariba,P3,-17.194021914119812,28.58868457508359
2995,10254,GORORO ,Masvingo,Primary,Chivi,P3,-20.796941914119813,30.87434457508359
5269,16589,BOPOMA,Midlands,Primary,Gokwe South,P3,-18.376671914119814,28.60115457508359
4934,16043,SELUKWE PEAK,Midlands,Primary,Shurugwi,P2,-19.663681914119813,29.96039457508359
1193,4235,CHIMBUWE,Mashonaland Central,Primary,Mt. Darwin,P3,-16.233851914119814,31.52373457508359
4496,14113,NKASHE,Matabeleland South,Primary,Gwanda,P3,-20.863041914119815,29.13148457508359
4728,14431,NJELELE SDA,Matabeleland South,Primary,Matobo,P3,-20.651691914119812,28.40100457508359
3306,10644,MUNDONDO,Masvingo,Primary,Gutu,P3,-19.935651914119813,31.004924575083592
1451,5120,HURUMA PRY,Mashonaland Central,Primary,Rushinga,P3,-16.749201914119812,32.15103457508359
2243,8031,LADY TAIT PRIMARY,Mashonaland West,Primary,Mhondoro Ngezi,P1,-18.342261914119813,29.90644457508359
5168,16482,OLD GATO,Midlands,Primary,Shurugwi,P3,-19.998991914119813,30.24145457508359
2129,6917,KAMBANJE,Mashonaland East,Primary,Mudzi,P3,-17.220081914119813,32.913484575083594
510,2536,MHANDARUME,Manicaland,Primary,Chimanimani,P3,-19.526301914119813,32.57682457508359
1234,4282,KAMBAMURA,Mashonaland Central,Primary,Mt. Darwin,P3,-16.627211914119815,31.84466457508359
289,2254,MAPARADZE,Manicaland,Primary,Chipinge,P3,-21.077061914119813,32.259884575083596
2385,8293,MKWASHA ,Mashonaland West,Primary,Chegutu,P3,-17.890831914119815,30.17766457508359
4065,12457,SAMENDE PRIMARY,Matabeleland North,Primary,Binga,P3,-17.680641914119814,27.44519457508359
4370,12822,MPATI,Matabeleland North,Primary,Binga,P3,-18.191171914119813,27.20480457508359
5279,16600,CHIBASA,Midlands,Primary,Gokwe South,P3,-17.885121914119814,28.62057457508359
3683,11078,CHIEDZA,Masvingo,Primary,Mwenezi,P3,-21.175331914119813,30.827094575083592
529,2561,KODZAIMAMBO,Manicaland,Primary,Nyanga,P3,-17.319691914119815,32.911274575083596
3845,12221,MBEMBESWANA 1,Matabeleland North,Primary,Bubi,P3,-19.313921914119813,28.387804575083592
4313,12763,HORTON,Matabeleland North,Primary,Tsholotsho,P3,-20.078031914119812,28.09439457508359
3284,10622,GANGARE,Masvingo,Primary,Bikita,P3,-19.926741914119813,31.80741457508359
988,3053,DAMBAKUPETWA PRIMARY,Manicaland,Primary,Nyanga,P3,-17.727091914119814,32.808974575083596
5203,16521,GANYUNGU,Midlands,Primary,Gokwe South,P3,-18.092301914119815,29.15302457508359
183,1260,TYNWALD,Harare,Primary,Warren Park Mabelreign,P2,-17.817291914119814,30.966544575083592
4886,14613,DRIEHOEK,Matabeleland South,Primary,Gwanda,P3,-21.248401914119814,29.43881457508359
905,2960,MATSURO,Manicaland,Primary,Chipinge,P3,-20.628181914119814,32.3983645750836
1299,4360,ST.BASILS,Mashonaland Central,Primary,Bindura,P3,-17.063061914119814,31.29948457508359
1880,6561,HELM,Mashonaland East,Primary,Marondera,P3,-18.072721914119814,31.54166457508359
5601,17934,CHAKASTEAD,Midlands,Primary,Chirumanzu,P3,-19.458131914119814,30.695424575083592
2922,10181,CHINGAI PRIMARY,Masvingo,Primary,Gutu,P3,-19.717521914119814,31.79270457508359
1949,6635,MAVHURAZI,Mashonaland East,Primary,Mudzi,P3,-17.226691914119815,32.553754575083595
1630,6280,MACHEKE  NYAZEMA,Mashonaland East,Primary,Murehwa,P3,-18.139471914119813,31.82828457508359
3925,12310,SASEDZA,Matabeleland North,Primary,Tsholotsho,P3,-19.710741914119815,27.501834575083592
1624,6232,SENGWE,Mashonaland East,Primary,Chikomba,P3,-19.117761914119814,31.51053457508359
333,2316,BVEKERWA,Manicaland,Primary,Makoni,P3,-18.613341914119815,31.92620457508359
1328,4393,CHOMUTUKUTU,Mashonaland Central,Primary,Rushinga,P3,-16.542851914119815,32.188094575083596
152,1228,KUWADZANA  1,Harare,Primary,Warren Park Mabelreign,P2,-17.832111914119814,30.92312457508359
2986,10245,SHUMBA PRIMARY,Masvingo,Primary,Chivi,P3,-20.029181914119814,30.20375457508359
346,2330,RUGOYI ST LUCY,Manicaland,Primary,Makoni,P3,-18.627371914119813,32.37873457508359
1343,4408,NYATSATO,Mashonaland Central,Primary,Rushinga,P3,-16.574051914119813,32.360884575083595
2459,8379,MASHONGWE,Mashonaland West,Primary,Hurungwe,P3,-16.409941914119813,29.54281457508359
1584,6184,ZIMONDI (ST MARK),Mashonaland East,Primary,Chikomba,P3,-18.845731914119813,30.89383457508359
1245,4293,MAZOWE MINE   ,Mashonaland Central,Primary,Mazowe,P3,-17.468041914119812,30.94500457508359
4319,12769,LONELY MINE,Matabeleland North,Primary,Bubi,P3,-19.479781914119815,28.73435457508359
2657,8615,KEMUPFUTI,Mashonaland West,Primary,Makonde,P3,-17.467411914119815,29.40202457508359
1508,5181,NYADEVI,Mashonaland Central,Primary,Muzarabani,P3,-16.777101914119815,30.97458457508359
2180,7051,SHINGIRIRAI,Mashonaland East,Primary,Chikomba,P3,-19.002521914119814,30.81485457508359
1906,6587,ST THOMAS COMMITTEE,Mashonaland East,Primary,Marondera,P3,-18.180601914119812,31.415594575083592
607,2641,GUNDE,Manicaland,Primary,Buhera,P3,-19.072161914119814,31.676664575083592
4955,16068,WOODLANDS,Midlands,Primary,Gweru,P3,-19.838641914119815,29.53881457508359
4143,12536,GEGEMA,Matabeleland North,Primary,Lupane,P3,-18.438831914119813,27.77949457508359
1752,6431,GEZI,Mashonaland East,Primary,Murehwa,P3,-17.714931914119813,31.61208457508359
2468,8389,SHAMBAVARUNGU,Mashonaland West,Primary,Zvimba,P3,-17.794831914119815,30.10023457508359
5087,16397,MAJANDU,Midlands,Primary,Chirumanzu,P3,-19.518711914119812,30.47314457508359
4877,14603,MPISINI,Matabeleland South,Primary,Umzingwane,P3,-20.217031914119815,29.09968457508359
1963,6650,MAKUNDE,Mashonaland East,Primary,Murehwa,P3,-17.772041914119814,31.78408457508359
5512,16872,MAFIDHI MUNANGAGWA,Midlands,Primary,Kwekwe,P2,-19.003411914119813,29.77433457508359
3679,11074,TSAKANI ,Masvingo,Primary,Mwenezi,P3,-20.972101914119815,30.82940457508359
4757,14460,DIBA,Matabeleland South,Primary,Bulilima,P3,-20.374141914119814,27.81159457508359
224,2014,CHENGETAI,Manicaland,Primary,Mutare,P3,-18.972521914119813,32.6213445750836
396,2380,MUTASA  ,Manicaland,Primary,Buhera,P3,-19.357851914119813,31.526894575083592
1535,5212,NYAGONYE,Mashonaland Central,Primary,Mbire,P3,-16.280051914119813,30.65484457508359
2686,8657,MUROMBEDZI,Mashonaland West,Primary,Zvimba,P3,-17.703801914119815,30.18084457508359
548,2581,KADZERE,Manicaland,Primary,Mutasa,P3,-18.549351914119814,32.5266745750836
2405,8315,MOYOMUSANTE,Mashonaland West,Primary,Sanyati,P3,-17.882951914119815,29.42269457508359
380,2364,MUTOONWA,Manicaland,Primary,Mutare,P3,-19.425891914119813,32.4198545750836
2831,9051,PONDEROSA,Mashonaland West,Primary,Makonde,P3,-16.785431914119815,30.09739457508359
4266,12701,DUMEZWENI,Bulawayo,Primary,Khami,P2,-20.155641914119812,28.456784575083592
3239,10576,MACHAWIRA,Masvingo,Primary,Gutu,P3,-19.472311914119814,31.649814575083592
4123,12516,MAJAHA  PRIMARY,Matabeleland North,Primary,Nkayi,P3,-19.090021914119813,28.52008457508359
5283,16604,SEANGA ,Midlands,Primary,Kwekwe,P3,-18.822401914119812,29.03553457508359
1494,5166,CHIRIDZA,Mashonaland Central,Primary,Muzarabani,P3,-16.250851914119814,31.37681457508359
2139,6939,RIVERSDALE,Mashonaland East,Primary,Chikomba,P3,-18.676201914119815,30.92583457508359
2779,8994,CHIRAU HALL ,Mashonaland West,Primary,Zvimba,P3,-17.685071914119813,30.11129457508359
3787,12092,RANGEMORE,Bulawayo,Primary,Khami,P2,-20.210521914119813,28.476864575083592
3809,12114,EMQWASHINI,Matabeleland North,Primary,Umguza,P3,-19.743631914119813,28.40098457508359
919,2974,NYAGADZA,Manicaland,Primary,Chipinge,P3,-20.533801914119813,32.4584445750836
307,2273,MAFUNDE,Manicaland,Primary,Mutare,P3,-19.409671914119812,32.24283457508359
4153,12546,MBONDO,Matabeleland North,Primary,Lupane,P3,-18.710611914119813,28.099244575083592
2650,8606,CHISHUMBA ,Mashonaland West,Primary,Hurungwe,P3,-16.803111914119814,29.41524457508359
2115,6832,JOYCE MINE (RUVANGWE),Mashonaland East,Primary,Seke,P3,-17.331531914119815,30.92593457508359
3289,10627,CHIVAKA,Masvingo,Primary,Bikita,P3,-19.982361914119814,31.753714575083592
252,2068,MUTARE JUNIOR,Manicaland,Primary,Mutare,P1,-18.974281914119814,32.67588457508359
4491,14108,LUMENE,Matabeleland South,Primary,Gwanda,P3,-20.637261914119815,28.98877457508359
2046,6749,MASVITSI,Mashonaland East,Primary,Mutoko,P3,-17.588061914119812,31.98361457508359
3821,12126,LUKALA,Matabeleland North,Primary,Bubi,P3,-19.272461914119813,28.43277457508359
159,1235,HATCLIFFE    1,Harare,Primary,Northern Central,P2,-17.693621914119813,31.09477457508359
1216,4263,MANYUCHI,Mashonaland Central,Primary,Mt. Darwin,P3,-16.780611914119813,31.88783457508359
4128,12521,KOMAYANGA ,Matabeleland North,Primary,Nkayi,P3,-18.886461914119813,28.62650457508359
3986,12378,GONYE SDA,Matabeleland North,Primary,Nkayi,P3,-18.884251914119815,28.72671457508359
4432,14048,SWAZI,Matabeleland South,Primary,Umzingwane,P3,-20.567811914119815,28.97974457508359
3907,12292,LUTSHA,Matabeleland North,Primary,Nkayi,P3,-19.037581914119812,28.52321457508359
4332,12783,MVUNDLA,Matabeleland North,Primary,Bubi,P3,-19.557621914119814,28.85532457508359
1427,4604,CHIGIJI PRY,Mashonaland Central,Primary,Bindura,P3,-17.317451914119815,31.17724457508359
4984,16122,GAMBIZA ST. PHILEMON,Midlands,Primary,Gweru,P3,-19.289101914119815,29.88849457508359
1449,5116,MVURWI ,Mashonaland Central,Primary,Mazowe,P3,-17.033281914119815,30.82904457508359
3626,11012,CHITOPE,Masvingo,Primary,Chiredzi,P3,-20.670661914119815,31.36427457508359
660,2695,BHEGEDHE,Manicaland,Primary,Buhera,P3,-19.838051914119813,32.0687845750836
4961,16097,NYAJE,Midlands,Primary,Gokwe South,P3,-18.556991914119813,28.77864457508359
2670,8629,NAISON DIP,Mashonaland West,Primary,Makonde,P3,-17.577821914119813,29.67152457508359
3274,10612,RUPATI PRIMARY,Masvingo,Primary,Gutu,P3,-19.520441914119814,30.93224457508359
3390,10729,MARINDA,Masvingo,Primary,Mwenezi,P3,-21.207771914119814,30.38558457508359
3942,12331,JIBAJIBA ,Matabeleland North,Primary,Lupane,P3,-18.948541914119815,28.104214575083592
55,1064,LOCHINVAR ,Harare,Primary,High Glen,P1,-17.871351914119813,30.974244575083592
2751,8966,SUNNYBANK,Mashonaland West,Primary,Sanyati,P3,-18.241161914119814,29.71388457508359
5219,16539,DZVUKE,Midlands,Primary,Gokwe South,P3,-18.454981914119813,28.48016457508359
1718,6393,CHIUNYE,Mashonaland East,Primary,Mudzi,P3,-17.000121914119813,32.26063457508359
1870,6551,CHITOWA NO 2,Mashonaland East,Primary,Murehwa,P3,-17.555201914119813,31.880114575083592
2993,10252,DEWE,Masvingo,Primary,Chivi,P3,-20.402881914119813,30.52226457508359
3988,12380,GWAMAYAYA SDA,Matabeleland North,Primary,Nkayi,P3,-18.712141914119815,28.616034575083592
238,2037,MUONDOZI,Manicaland,Primary,Makoni,P3,-18.033631914119812,32.09612457508359
3724,12016,SAGONDA,Matabeleland North,Primary,Nkayi,P3,-18.894931914119812,28.54654457508359
128,1150,MABELREIGN Z.R.P.,Harare,Primary,Warren Park Mabelreign,P1,-17.801381914119812,30.96666457508359
605,2639,GWENDINGWE,Manicaland,Primary,Chimanimani,P3,-19.913771914119813,32.641304575083595
3466,10810,CHEMVANA PRIMARY,Masvingo,Primary,Mwenezi,P3,-21.230981914119813,30.51529457508359
4879,14605,INYANKUNI,Matabeleland South,Primary,Umzingwane,P3,-20.297521914119812,29.16026457508359
5214,16532,SAYI,Midlands,Primary,Gokwe South,P3,-18.159511914119815,28.36345457508359
4565,14250,MANGALA,Matabeleland South,Primary,Matobo,P3,-20.958821914119813,28.42007457508359
2029,6718,CHATSEKA,Mashonaland East,Primary,UMP,P3,-16.822551914119813,32.296994575083595
5176,16491,VALLEY CHROME,Midlands,Primary,Shurugwi,P3,-19.562311914119814,30.03127457508359
916,2971,RUCHERA,Manicaland,Primary,Nyanga,P3,-18.115761914119815,32.53286457508359
1141,4178,CHAONA,Mashonaland Central,Primary,Mazowe,P3,-16.803551914119815,31.24421457508359
2621,8576,SHINGWIRI,Mashonaland West,Primary,Chegutu,P3,-18.047491914119814,30.53820457508359
4912,16005,MUDAVANHU ZIMCARE TRUST,Midlands,Primary,Gweru,P2,-19.477781914119813,29.75814457508359
5526,16898,HANAWA,Midlands,Primary,Zvishavane,P3,-19.985051914119815,30.07245457508359
2369,8276,TAFIRA,Mashonaland West,Primary,Zvimba,P3,-17.668381914119813,30.07956457508359
580,2613,MAJAKWARA,Manicaland,Primary,Makoni,P3,-18.718571914119813,32.3849545750836
4030,12422,CHEWUMBA,Matabeleland North,Primary,Hwange,P3,-18.101141914119815,26.06502457508359
3587,10967,SHINGIRIRAI,Masvingo,Primary,Mwenezi,P3,-21.462511914119812,30.34306457508359
39,1043,GWINYIRO,Harare,Primary,Glenview Mufakose,P2,-17.870931914119815,30.91958457508359
5037,16184,JENA,Midlands,Primary,Mberengwa,P3,-20.799481914119813,30.33820457508359
4628,14329,SILIMA,Matabeleland South,Primary,Mangwe,P3,-20.654821914119815,27.82834457508359
5346,16669,NGANI,Midlands,Primary,Gokwe South,P3,-18.051511914119814,28.71036457508359
391,2375,MUKONDOMI,Manicaland,Primary,Buhera,P3,-19.187201914119814,31.64058457508359
590,2624,HLABISO,Manicaland,Primary,Chimanimani,P3,-20.035111914119813,32.90566457508359
2815,9034,JECHENENE ,Mashonaland West,Primary,Makonde,P3,-16.676211914119815,30.07067457508359
5605,17939,FAERDAN,Midlands,Primary,Chirumanzu,P3,-19.389431914119815,30.40550457508359
4150,12543,MADABU,Matabeleland North,Primary,Tsholotsho,P3,-19.947811914119814,27.56543457508359
4672,14374,MAMBALE,Matabeleland South,Primary,Mangwe,P3,-21.493411914119815,28.31093457508359
2259,8053,MARADADI PRIMARY,Mashonaland West,Primary,Chegutu,P3,-18.084941914119813,29.995264575083592
2505,8432,NIDD VALLEY,Mashonaland West,Primary,Zvimba,P3,-17.577931914119812,30.26214457508359
5531,17000,KANDODO,Midlands,Primary,Zvishavane,P2,-20.330561914119812,30.042084575083592
4160,12553,CHINONGE PRIMARY,Matabeleland North,Primary,Binga,P3,-18.232161914119814,27.57973457508359
5069,16337,SIYEZI ,Midlands,Primary,Kwekwe,P3,-18.923731914119813,28.92184457508359
2217,7093,MANYOSHWA,Mashonaland East,Primary,Seke,P3,-18.207781914119813,31.06908457508359
192,1269,ST MARYS PRIVATE,Harare,Primary,Chitungwiza,P2,-17.995101914119815,31.04599457508359
747,2784,CHARLESWOOD,Manicaland,Primary,Chimanimani,P3,-19.787211914119812,32.9296145750836
1995,6683,CHIPARAWE,Mashonaland East,Primary,Marondera,P3,-17.971431914119815,31.60276457508359
4019,12411,CHEFUNYE,Matabeleland North,Primary,Tsholotsho,P3,-20.104441914119814,27.784304575083592
5655,17989,IVHUKUVANHU,Midlands,Primary,Mberengwa,P3,-20.539361914119812,29.958004575083592
2834,9054,SADOMA EXT CHIPO,Mashonaland West,Primary,Makonde,P3,-17.201831914119815,29.74691457508359
728,2765,NYAFARU,Manicaland,Primary,Nyanga,P3,-18.196601914119814,32.91468457508359
4059,12451,MUNUNA,Matabeleland North,Primary,Hwange,P3,-18.147241914119814,26.26494457508359
1146,4183,CHINEHASHA,Mashonaland Central,Primary,Mazowe,P3,-16.915711914119814,31.189794575083592
427,2411,MUTAUTO,Manicaland,Primary,Buhera,P3,-19.306731914119812,31.92747457508359
3211,10547,DARE PRIMARY,Masvingo,Primary,Chivi,P3,-20.814471914119814,30.85244457508359
3590,10970,RINETTE,Masvingo,Primary,Mwenezi,P3,-21.275631914119813,30.660234575083592
434,2418,ZVENYIKA,Manicaland,Primary,Buhera,P3,-19.612391914119815,32.012074575083595
4803,14518,MUGALADIVHA,Matabeleland South,Primary,BeitBridge,P3,-21.833251914119813,30.06792457508359
5429,16783,MWAMBANI,Midlands,Primary,Gokwe South,P3,-18.472181914119815,28.168224575083592
3078,10337,MUREREKWA,Masvingo,Primary,Zaka,P3,-20.310361914119813,31.40334457508359
4701,14404,KANDANA,Matabeleland South,Primary,Bulilima,P3,-20.308641914119814,27.78379457508359
5178,16493,TOKWE,Midlands,Primary,Shurugwi,P3,-19.882881914119814,30.36027457508359
1195,4237,SOHWE,Mashonaland Central,Primary,Mt. Darwin,P3,-16.502081914119813,31.64131457508359
3677,11072,TASHINGA,Masvingo,Primary,Mwenezi,P3,-20.990601914119814,30.69032457508359
3813,12118,MDENGELELE,Matabeleland North,Primary,Nkayi,P3,-18.733221914119813,28.56851457508359
108,1126,WIDDICOMBE ,Harare,Primary,Mbare Hatfield,P1,-17.881601914119813,31.10396457508359
2036,6726,HOWSON,Mashonaland East,Primary,Goromonzi,P3,-17.690661914119815,31.27598457508359
5148,16459,GADZA,Midlands,Primary,Gokwe South,P3,-18.554251914119813,28.31660457508359
5576,17906,MTSHINGWE,Midlands,Primary,Zvishavane,P3,-20.374881914119815,29.84564457508359
1631,6286,CHIPINDA,Mashonaland East,Primary,Murehwa,P3,-17.698431914119812,31.92083457508359
295,2261,MANZVIRE,Manicaland,Primary,Chipinge,P3,-20.657731914119815,32.320834575083595
634,2669,BVUMBURA,Manicaland,Primary,Chimanimani,P3,-19.685831914119813,32.667924575083596
4528,14145,NTEPE,Matabeleland South,Primary,Gwanda,P3,-21.252111914119812,29.015164575083592
5568,17046,KABUYUNI ,Midlands,Primary,Gokwe North,P3,-17.595811914119814,28.35162457508359
3559,10923,LOWVELD S D A,Masvingo,Primary,Chiredzi,P3,-21.040491914119812,31.36956457508359
3359,10697,GUDO ,Masvingo,Primary,Gutu,P3,-19.625121914119813,31.80038457508359
3156,10418,MUTSAMBWA,Masvingo,Primary,Zaka,P3,-20.107361914119814,31.39224457508359
2132,6923,BANZA,Mashonaland East,Primary,Chikomba,P3,-18.676201914119815,30.88024457508359
3733,12025,GLOAG RANCH,Matabeleland North,Primary,Bubi,P3,-19.800831914119815,28.94860457508359
1837,6517,MUNGURAWU,Mashonaland East,Primary,Chikomba,P3,-18.878871914119813,31.58767457508359
875,2930,TSATSE,Manicaland,Primary,Nyanga,P3,-18.140481914119814,32.947264575083594
1303,4368,KASUWO,Mashonaland Central,Primary,Mbire,P3,-16.323211914119813,30.780264575083592
3815,12120,MADLELENYONI,Matabeleland North,Primary,Umguza,P3,-19.988041914119815,28.84743457508359
5495,16854,RUURAUGWI,Midlands,Primary,Mberengwa,P3,-20.683261914119814,30.14849457508359
4341,12792,KINGS PRIMARY,Matabeleland North,Primary,Hwange,P3,-17.952921914119813,25.80200457508359
3112,10371,CHIPFUNDE,Masvingo,Primary,Zaka,P3,-20.597761914119815,31.45239457508359
5373,16696,NYAURUNGWE,Midlands,Primary,Gokwe North,P3,-17.535161914119815,29.34029457508359
4007,12399,GWAAI PRIMARY  SCHOOL,Matabeleland North,Primary,Tsholotsho,P3,-19.282611914119812,27.667004575083592
1864,6545,WALTONDALE,Mashonaland East,Primary,Marondera,P3,-18.306201914119814,31.28874457508359
4902,14659,GWAMANYANGA,Matabeleland South,Primary,Insiza,P3,-20.034331914119814,29.68175457508359
2044,6747,HURUMUTUMBU,Mashonaland East,Primary,Mutoko,P3,-17.707531914119812,32.245554575083595
3572,10944,JUDEA ,Masvingo,Primary,Chiredzi,P3,-20.703841914119813,31.54213457508359
184,1261,DOMBORAMWARI (ZINYENGERE),Harare,Primary,Mabvuku Tafara,P2,-17.910051914119812,31.13361457508359
2943,10202,NYAMANDI PRIMARY,Masvingo,Primary,Gutu,P3,-19.553381914119814,31.45439457508359
4192,12586,JAKALASI PRIMARY SCHOOL,Matabeleland North,Primary,Tsholotsho,P3,-19.257281914119815,27.56811457508359
4988,16127,MATABO,Midlands,Primary,Mberengwa,P3,-20.981321914119814,29.55960457508359
92,1110,ST GILES,Harare,Primary,Northern Central,P1,-17.820601914119813,31.01486457508359
4939,16051,MVUMA,Midlands,Primary,Chirumanzu,P1,-19.284851914119812,30.518344575083592
4826,14542,NKANKEZI,Matabeleland South,Primary,Insiza,P3,-20.493611914119814,29.39947457508359
312,2278,ST GEORGES MBUNDIRE,Manicaland,Primary,Buhera,P3,-19.155301914119814,31.38268457508359
1943,6629,NYAMATAWA,Mashonaland East,Primary,Mudzi,P3,-17.176551914119813,32.61391457508359
3931,12318,TSHAYAMATHOLE,Matabeleland North,Primary,Lupane,P3,-19.173161914119813,27.68527457508359
2902,10026,ST ANTHONY,Masvingo,Primary,Zaka,P3,-20.397261914119813,31.41799457508359
563,2596,MUKUWAPASI,Manicaland,Primary,Makoni,P3,-18.580861914119815,32.26061457508359
5503,16862,SOMPHAKATHI ,Midlands,Primary,Gweru,P3,-19.260701914119814,29.38876457508359
3531,10886,HWIRU,Masvingo,Primary,Gutu,P3,-19.642211914119812,31.14327457508359
4415,14022,MATJINGE,Matabeleland South,Primary,Bulilima,P3,-20.201691914119813,27.72300457508359
3132,10391,NJOVO PRIMARY,Masvingo,Primary,Masvingo,P3,-20.448731914119815,30.97287457508359
4375,12827,BREAKFAST  PRIMARY,Matabeleland North,Primary,Hwange,P3,-18.271481914119814,26.10237457508359
4866,14592,POLI MAGAMA,Matabeleland South,Primary,Matobo,P3,-20.814351914119815,28.43739457508359
1044,3945,MUNEPASI PRY,Manicaland,Primary,Chipinge,P3,-20.840011914119813,32.32031457508359
5226,16546,MANGWARANGWARA,Midlands,Primary,Kwekwe,P3,-18.379091914119815,29.46557457508359
1442,5006,BUNGWE PRIMARY,Mashonaland Central,Primary,Rushinga,P3,-16.564711914119815,32.041264575083595
2338,8240,MANDORA,Mashonaland West,Primary,Mhondoro Ngezi,P3,-18.717361914119813,30.46819457508359
2304,8198,ST JOSEPH MUPEREKI,Mashonaland West,Primary,Mhondoro Ngezi,P3,-18.720571914119812,30.518724575083592
2535,8481,CLYDESDALE,Mashonaland West,Primary,Zvimba,P3,-17.468121914119813,30.21406457508359
5144,16455,VUNKU SHEMER,Midlands,Primary,Gweru,P3,-19.471751914119814,29.51952457508359
3464,10808,SHAYAMAVHUDZI,Masvingo,Primary,Mwenezi,P3,-21.235681914119812,30.16948457508359
57,1068,MABVUKU,Harare,Primary,Mabvuku Tafara,P2,-17.844601914119814,31.17033457508359
1860,6541,DOMBOSHAWA,Mashonaland East,Primary,Goromonzi,P3,-17.606171914119813,31.13324457508359
3745,12041,HELEMU,Bulawayo,Primary,Mzilikazi,P2,-20.137161914119815,28.518824575083592
1390,4457,COPLEY,Mashonaland Central,Primary,Mazowe,P3,-17.134321914119813,30.887534575083592
1742,6420,ST PAUL SANGO,Mashonaland East,Primary,Hwedza,P3,-18.787671914119812,31.72653457508359
1154,4191,BELLROCK,Mashonaland Central,Primary,Mazowe,P3,-17.146531914119812,31.09806457508359
1011,3909,MUSARINGO,Manicaland,Primary,Makoni,P3,-18.672521914119812,32.342884575083595
2655,8613,ENDEAVOUR,Mashonaland West,Primary,Makonde,P3,-16.828521914119815,30.32911457508359
1350,4415,MUKONDE,Mashonaland Central,Primary,Rushinga,P3,-16.617661914119815,32.286294575083595
4224,12657,HOJENI ,Matabeleland North,Primary,Nkayi,P3,-18.727861914119813,28.70777457508359
5145,16456,WOZOLI ,Midlands,Primary,Kwekwe,P3,-19.061581914119813,29.31678457508359
3338,10676,MUGODHI PRIMARY,Masvingo,Primary,Gutu,P3,-19.712491914119813,31.61375457508359
3178,10441,MANDINDI,Masvingo,Primary,Bikita,P3,-20.018181914119815,31.43385457508359
1481,5153,MAPAREPARE,Mashonaland Central,Primary,Rushinga,P3,-16.525531914119814,32.408834575083596
1677,6339,MASENDA,Mashonaland East,Primary,Mudzi,P3,-17.123441914119812,32.238954575083596
3150,10411,CHIPINDA,Masvingo,Primary,Zaka,P3,-20.084401914119812,31.35660457508359
992,3057,REGINA COELI,Manicaland,Primary,Nyanga,P3,-17.872211914119813,32.869704575083595
2363,8269,MADZIMA,Mashonaland West,Primary,Zvimba,P3,-17.790991914119815,30.27908457508359
3922,12307,NKWIZHU,Matabeleland North,Primary,Tsholotsho,P3,-19.548201914119815,27.72291457508359
808,2845,RENZVA PRIMARY,Manicaland,Primary,Nyanga,P3,-17.474411914119813,32.70925457508359
3686,11081,MURAWI ,Masvingo,Primary,Mwenezi,P3,-20.824181914119812,30.50336457508359
109,1127,YAMURANAYI,Harare,Primary,Glenview Mufakose,P2,-17.872691914119812,30.91438457508359
4518,14135,GUNGWE,Matabeleland South,Primary,Gwanda,P3,-21.452491914119815,28.88563457508359
3905,12289,BHUBHU,Matabeleland North,Primary,Nkayi,P3,-19.079881914119813,28.97481457508359
2787,9003,MVOU,Mashonaland West,Primary,Zvimba,P3,-17.233471914119814,30.440544575083592
1530,5205,MAZAMBARA   PRIMARY ,Mashonaland Central,Primary,Mbire,P3,-16.110061914119814,30.401144575083592
1280,4334,GWINGWIZHA,Mashonaland Central,Primary,Mazowe,P3,-16.899321914119813,31.07123457508359
1565,6038,MACHEKE GOVT.,Mashonaland East,Primary,Murehwa,P1,-18.150611914119814,31.83240457508359
371,2355,WENDUMBA,Manicaland,Primary,Mutare,P3,-19.155971914119814,32.36906457508359
2725,8938,KATAWA ,Mashonaland West,Primary,Chegutu,P3,-18.342681914119815,30.36933457508359
2911,10082,MATARA PRIMARY,Masvingo,Primary,Zaka,P3,-20.565811914119813,31.63128457508359
3101,10360,MUSHUNGWA,Masvingo,Primary,Zaka,P3,-20.472081914119812,31.43628457508359
4209,12618,MAMBANJE PRIMARY,Matabeleland North,Primary,Hwange,P3,-18.520911914119814,26.76931457508359
3736,12030,ST PATRICKS PRY,Bulawayo,Primary,Reigate,P2,-20.149041914119813,28.56024457508359
4393,12883,LWANZI,Matabeleland North,Primary,Binga,P3,-18.210981914119813,27.04392457508359
4556,14173,LIMPOPO,Matabeleland South,Primary,BeitBridge,P3,-21.951831914119815,29.302124575083592
3069,10328,MAFURATIDZE,Masvingo,Primary,Zaka,P3,-20.355151914119812,31.17139457508359
5392,16716,INSUKAMINI,Midlands,Primary,Gokwe South,P3,-18.148331914119815,28.97257457508359
2538,8485,KAHONDE,Mashonaland West,Primary,Hurungwe,P3,-16.801911914119813,29.28928457508359
4038,12430,SIR HUMPHREY GIBBS,Matabeleland North,Primary,Hwange,P3,-18.368171914119813,26.41739457508359
3488,10843,GWAIVHI,Masvingo,Primary,Chiredzi,P3,-22.308571914119813,31.26258457508359
3515,10870,MUKONDE PRIMARY,Masvingo,Primary,Masvingo,P3,-20.265671914119814,30.72772457508359
2551,8498,SHINGIRIRAI,Mashonaland West,Primary,Sanyati,P3,-18.145951914119813,29.36052457508359
2938,10197,MUDZAMIRI,Masvingo,Primary,Gutu,P3,-19.623731914119812,31.48648457508359
2797,9015,BAGUTA,Mashonaland West,Primary,Makonde,P3,-17.299261914119814,30.199364575083592
2892,10011,CHIKATO GVT PRIMARY,Masvingo,Primary,Masvingo,P2,-20.084731914119814,30.79858457508359
1789,6468,RAMBANAPASI,Mashonaland East,Primary,Hwedza,P3,-18.747391914119813,31.52488457508359
5298,16620,MANGWANDE,Midlands,Primary,Gweru,P3,-19.376291914119815,29.40821457508359
375,2359,MUNYORO,Manicaland,Primary,Mutare,P3,-19.280761914119815,32.33739457508359
1710,6384,CHITSUNGO,Mashonaland East,Primary,UMP,P3,-17.016261914119813,32.05826457508359
4981,16118,ST.BARNABAS GOMO,Midlands,Primary,Gweru,P3,-19.245281914119815,29.93771457508359
3421,10761,GEZANI,Masvingo,Primary,Chiredzi,P3,-22.076351914119815,31.15159457508359
577,2610,CHIDUKU,Manicaland,Primary,Makoni,P3,-18.828171914119814,31.93205457508359
4905,14662,ENSANGO,Matabeleland South,Primary,Insiza,P3,-19.776471914119814,29.13005457508359
1181,4221,NYACHURU  ,Mashonaland Central,Primary,Mazowe,P3,-17.232011914119813,30.980244575083592
243,2045,NYAZURA,Manicaland,Primary,Makoni,P3,-18.770861914119813,32.20910457508359
8,1009,TINOKWIRIRA SPEC.,Harare,Primary,Mabvuku Tafara,P2,-17.836311914119815,31.18159457508359
31,1035,KUNDAYI                  ,Harare,Primary,High Glen,P2,-17.911001914119815,30.94670457508359
3395,10734,CHIKARUDZO PRIMARY,Masvingo,Primary,Masvingo,P3,-20.355421914119812,30.93493457508359
2963,10222,CHIROGWE PRIMARY,Masvingo,Primary,Chivi,P3,-20.539371914119812,30.555784575083592
899,2954,NYAHUKWE,Manicaland,Primary,Makoni,P3,-18.466241914119813,32.30117457508359
1920,6604,MAGUDU,Mashonaland East,Primary,UMP,P3,-16.934711914119813,32.14413457508359
1240,4288,MAJOME  ,Mashonaland Central,Primary,Mazowe,P3,-17.007301914119815,31.02068457508359
2049,6752,NYARUSHIPE,Mashonaland East,Primary,Mutoko,P3,-17.692331914119812,32.042404575083594
1182,4222,NYAMAZIZI,Mashonaland Central,Primary,Mt. Darwin,P3,-16.681551914119815,31.67573457508359
2318,8214,HUNGWE,Mashonaland West,Primary,Chegutu,P3,-18.473881914119815,30.53887457508359
614,2648,ZONA,Manicaland,Primary,Chipinge,P3,-20.426921914119813,32.721534575083595
4776,14480,LUHWADE,Matabeleland South,Primary,BeitBridge,P3,-21.987641914119813,29.757094575083592
1607,6208,ST FRANCIS UDEBWE,Mashonaland East,Primary,Goromonzi,P3,-17.516331914119814,31.54714457508359
3076,10335,CHIRARA,Masvingo,Primary,Zaka,P3,-20.241611914119815,31.237934575083592
3047,10306,MANJOKONJO,Masvingo,Primary,Gutu,P3,-19.815341914119813,31.26005457508359
1945,6631,MAHUSVU,Mashonaland East,Primary,Chikomba,P3,-18.985981914119815,31.17116457508359
3214,10550,CHINGAMI,Masvingo,Primary,Mwenezi,P3,-20.946541914119813,30.61120457508359
1863,6544,ST CYPRIANS,Mashonaland East,Primary,Marondera,P3,-18.243021914119815,31.54084457508359
3425,10765,MUTAPURWA,Masvingo,Primary,Chiredzi,P3,-20.880291914119812,32.13424457508359
2220,7096,CHISARASARA,Mashonaland East,Primary,Seke,P3,-18.593851914119814,30.77860457508359
4890,14640,NEWLINE,Matabeleland South,Primary,Mangwe,P3,-21.246551914119813,27.99352457508359
4281,12721,DANDANDA PRY,Matabeleland North,Primary,Lupane,P3,-18.438201914119812,27.85765457508359
2069,6772,TSUNGA PRIMARY,Mashonaland East,Primary,Seke,P3,-18.403201914119812,31.02638457508359
2889,10004,MASHOKO CENTRAL,Masvingo,Primary,Bikita,P3,-20.492821914119812,31.73490457508359
4113,12506,MULINDI PRIMARY,Matabeleland North,Primary,Binga,P3,-18.156211914119815,27.46032457508359
2347,8252,MUCHEMWA,Mashonaland West,Primary,Mhondoro Ngezi,P3,-18.675851914119814,30.49457457508359
4639,14341,MAPOLISA,Matabeleland South,Primary,Insiza,P3,-20.205181914119812,29.201154575083592
3434,10774,MAKASI PRIMARY,Masvingo,Primary,Masvingo,P3,-20.338301914119814,30.84531457508359
4900,14656,PIONEER,Matabeleland South,Primary,Insiza,P3,-20.054711914119814,29.37060457508359
1385,4452,KABVUMA,Mashonaland Central,Primary,Mbire,P3,-16.295331914119814,30.47758457508359
3469,10824,TICHADYA,Masvingo,Primary,Chiredzi,P3,-21.510951914119815,31.39188457508359
3707,11102,DEMBE PRIMARY,Masvingo,Primary,Mwenezi,P3,-21.851101914119813,31.14768457508359
3570,10942,NGWANA ,Masvingo,Primary,Chiredzi,P3,-20.676831914119813,31.63601457508359
3615,11000,CHIBEPERO PRY,Masvingo,Primary,Chiredzi,P3,-20.644361914119813,32.20099457508359
4166,12559,MONDE PRIMARY,Matabeleland North,Primary,Hwange,P3,-18.020001914119813,25.833104575083592
3005,10264,ZIHWA,Masvingo,Primary,Chivi,P3,-20.523121914119812,30.49005457508359
2720,8932,BORDEN PRIMARY ,Mashonaland West,Primary,Chegutu,P3,-18.228331914119813,30.29392457508359
231,2025,CHISAMBA,Manicaland,Primary,Mutare,P2,-18.994561914119814,32.618784575083595
1819,6499,HOKONYA,Mashonaland East,Primary,Chikomba,P3,-19.046161914119814,31.10276457508359
4569,14254,MAWAZA,Matabeleland South,Primary,Gwanda,P3,-21.371151914119814,28.78864457508359
1582,6182,MUPFURURIRWA,Mashonaland East,Primary,Chikomba,P3,-19.010631914119813,31.22843457508359
3105,10364,MAJURU PRIMARY,Masvingo,Primary,Zaka,P3,-20.360091914119813,31.58933457508359
175,1251,TASIMUKIRA,Harare,Primary,Chitungwiza,P2,-18.027421914119813,31.10589457508359
4960,16096,MAZINYO ST HUGHS,Midlands,Primary,Gokwe South,P3,-18.496521914119814,28.42926457508359
4199,12595,TOBWE PRIMARY SCHOOL,Matabeleland North,Primary,Binga,P3,-18.060181914119813,27.52976457508359
4225,12658,LORTONDALE,Matabeleland North,Primary,Bubi,P3,-19.395351914119814,28.472924575083592
1989,6676,FUCHIRA,Mashonaland East,Primary,Mudzi,P3,-16.889781914119812,32.73524457508359
2078,6782,NYAMENI,Mashonaland East,Primary,Marondera,P2,-18.211431914119814,31.53038457508359
982,3047,FERN VALLEY,Manicaland,Primary,Mutare,P1,-19.038301914119813,32.64091457508359
1957,6643,MAYEMA,Mashonaland East,Primary,UMP,P3,-17.350411914119814,31.75946457508359
438,2444,ARNOLDINE,Manicaland,Primary,Makoni,P3,-18.241171914119814,32.1880745750836
1542,5221,DAMBAWIRA,Mashonaland Central,Primary,Bindura,P3,-16.993701914119814,31.233154575083592
2765,8980,SILVERMOON TAKUNDA,Mashonaland West,Primary,Mhondoro Ngezi,P3,-18.600141914119813,29.72258457508359
1173,4211,CHAPOTO,Mashonaland Central,Primary,Mbire,P3,-15.705301914119815,30.38577457508359
1692,6365,MUSANHI,Mashonaland East,Primary,UMP,P3,-17.419191914119814,31.95740457508359
188,1265,RUVHENEKO,Harare,Primary,High Glen,P2,-17.906731914119813,30.96490457508359
1755,6434,CHEMHONDORO,Mashonaland East,Primary,Murehwa,P3,-17.684431914119813,31.541614575083592
3205,10480,CHILONGA PRIMARY,Masvingo,Primary,Chiredzi,P3,-21.227921914119815,31.62860457508359
5411,16741,MANGOROHWE,Midlands,Primary,Gokwe North,P3,-17.446271914119812,29.25059457508359
4587,14274,MANDIWONGOLA,Matabeleland South,Primary,Gwanda,P3,-21.272411914119814,28.731554575083592
2970,10229,MASUNDA SOUTH,Masvingo,Primary,Chivi,P3,-20.410291914119814,30.62650457508359
2204,7079,NYAPFUNDE,Mashonaland East,Primary,Mudzi,P3,-17.338601914119813,32.617754575083595
3347,10685,CHIZUMBA,Masvingo,Primary,Mwenezi,P3,-21.120001914119815,30.56792457508359
3083,10342,NYAKUNHUWA,Masvingo,Primary,Zaka,P3,-20.386811914119814,31.21137457508359
5374,16697,GWARUSONDE,Midlands,Primary,Gokwe South,P3,-18.184481914119814,28.70664457508359
1060,3962,HANGANI,Manicaland,Primary,Chimanimani,P3,-19.720811914119814,32.82935457508359
1227,4274,CHAWARURA,Mashonaland Central,Primary,Muzarabani,P3,-16.499231914119814,31.08896457508359
797,2834,MUTANDAHWE ,Manicaland,Primary,Chipinge,P3,-21.011821914119814,32.18125457508359
1698,6371,CHIKUHWA,Mashonaland East,Primary,UMP,P3,-17.212501914119812,31.83286457508359
2457,8377,JESTER,Mashonaland West,Primary,Zvimba,P3,-17.041891914119812,30.710074575083592
4647,14349,ST MARIA,Matabeleland South,Primary,Matobo,P3,-21.345721914119814,28.23386457508359
1683,6345,MAKOCHERA,Mashonaland East,Primary,Mutoko,P3,-17.208741914119813,32.26860457508359
2560,8507,MUTORANHANGA,Mashonaland West,Primary,Hurungwe,P3,-16.603761914119815,29.540394575083592
3548,10903,DHAVATA,Masvingo,Primary,Chiredzi,P3,-22.271451914119815,31.21699457508359
1868,6549,MARIRANGWE SOUTH,Mashonaland East,Primary,Seke,P3,-18.165321914119815,30.75262457508359
1417,4494,NYAMANGORE,Mashonaland Central,Primary,Guruve,P3,-16.799361914119814,30.49598457508359
5073,16383,ST THERESA,Midlands,Primary,Chirumanzu,P2,-19.267401914119812,30.50495457508359
1761,6440,ST ALOIS CHIDHAU,Mashonaland East,Primary,Goromonzi,P3,-17.564911914119815,31.53193457508359
2882,9110,SADOMA,Mashonaland West,Primary,Makonde,P3,-17.213291914119814,29.80679457508359
2809,9028,FYNNLAND,Mashonaland West,Primary,Makonde,P3,-17.124211914119815,29.99546457508359
877,2932,IMBI,Manicaland,Primary,Buhera,P3,-19.825771914119812,32.0096845750836
153,1229,WARREN PARK 4 COUNCIL PRIMARY,Harare,Primary,Warren Park Mabelreign,P2,-17.833501914119815,30.94745457508359
1596,6197,ST JOHN'S MATSVAI,Mashonaland East,Primary,Hwedza,P3,-18.729151914119814,31.736444575083592
5457,16813,SHINGAYI,Midlands,Primary,Gokwe North,P3,-17.595771914119812,29.049314575083592
4473,14089,MAYEZANE,Matabeleland South,Primary,Gwanda,P3,-20.822681914119812,28.70455457508359
1738,6415,CHINAMHORA,Mashonaland East,Primary,Goromonzi,P3,-17.516131914119814,31.208854575083592
3059,10318,MUKOKO PRIMARY,Masvingo,Primary,Gutu,P3,-19.801181914119812,31.04135457508359
3045,10304,CHITANDO PRIMARY,Masvingo,Primary,Gutu,P3,-19.863001914119813,31.24370457508359
2744,8959,EASTERLEA,Mashonaland West,Primary,Sanyati,P3,-18.340481914119813,29.90022457508359
4178,12571,BOREHOLE 42,Matabeleland North,Primary,Lupane,P3,-18.475531914119813,27.88317457508359
4933,16040,ST MICHAEL'S ASCOT,Midlands,Primary,Gweru,P2,-19.438321914119815,29.77931457508359
4615,14316,KEME,Matabeleland South,Primary,Mangwe,P3,-21.070421914119812,28.069484575083592
1119,4151,GONO PRIMARY,Mashonaland Central,Primary,Shamva,P3,-17.146251914119812,31.54608457508359
2055,6758,NZIRA,Mashonaland East,Primary,Mutoko,P3,-17.673711914119814,32.11541457508359
2677,8642,SABINA MUGABE(KUTAMA FARM),Mashonaland West,Primary,Zvimba,P3,-17.741011914119813,30.40647457508359
4258,12693,MGIQIKA,Bulawayo,Primary,Imbizo,P2,-20.208891914119814,28.51495457508359
3234,10571,MASEMA,Masvingo,Primary,Gutu,P3,-19.869151914119815,31.50443457508359
2371,8278,MUCHERI,Mashonaland West,Primary,Zvimba,P3,-17.767501914119812,30.16509457508359
91,1109,SOUTHERTON,Harare,Primary,High Glen,P2,-17.867941914119815,30.99530457508359
3775,12075,MAZWI,Bulawayo,Primary,Khami,P2,-20.128191914119814,28.48085457508359
5088,16398,MAGADA,Midlands,Primary,Chirumanzu,P3,-19.505821914119814,30.432854575083592
2042,6745,ST PIUS MUKOTA,Mashonaland East,Primary,Mudzi,P3,-16.746501914119815,32.7906445750836
3152,10413,DEMBEDZA,Masvingo,Primary,Zaka,P3,-20.140081914119815,31.40698457508359
154,1230,GLEN  VIEW 6 ,Harare,Primary,Glenview Mufakose,P2,-17.907761914119813,30.91764457508359
4520,14137,PELELE,Matabeleland South,Primary,Gwanda,P3,-21.395271914119814,28.902634575083592
2396,8305,CHIKANGWE,Mashonaland West,Primary,Hurungwe,P2,-16.809941914119815,29.68035457508359
4778,14482,DULIBADZIMO,Matabeleland South,Primary,BeitBridge,P2,-22.185561914119813,29.98178457508359
5553,17026,TOM CHIBI,Midlands,Primary,Zvishavane,P3,-19.993931914119813,30.098964575083592
5382,16705,MWEMBESI,Midlands,Primary,Gokwe South,P3,-18.509151914119812,29.31439457508359
4021,12413,MATE,Matabeleland North,Primary,Tsholotsho,P3,-20.023461914119814,27.87651457508359
3687,11082,MURABA ,Masvingo,Primary,Mwenezi,P3,-21.047181914119815,30.04741457508359
3968,12358,ST GEORGES,Matabeleland North,Primary,Hwange,P2,-18.379661914119815,26.48198457508359
2600,8552,KUDZANAYI,Mashonaland West,Primary,Kariba,P3,-16.904981914119812,29.06331457508359
492,2509,GATSI,Manicaland,Primary,Mutasa,P3,-18.538071914119815,32.804604575083594
4420,14036,BETSA,Matabeleland South,Primary,Gwanda,P3,-21.162201914119812,28.88594457508359
1101,4132,CHIMFOMBO,Mashonaland Central,Primary,Guruve,P3,-16.674781914119812,30.59742457508359
3659,11054,CHIPESA PRY,Masvingo,Primary,Gutu,P3,-19.425561914119815,30.82984457508359
3263,10600,RUWARE,Masvingo,Primary,Chiredzi,P3,-20.814851914119814,31.70553457508359
805,2842,MUCHISI,Manicaland,Primary,Mutare,P3,-19.322891914119815,32.42988457508359
3930,12316,SIPHONGWENI,Matabeleland North,Primary,Tsholotsho,P3,-19.246971914119815,27.67955457508359
234,2028,DANGARE,Manicaland,Primary,Mutare,P2,-18.990511914119814,32.62054457508359
2114,6830,GILSTONE ,Mashonaland East,Primary,Seke,P3,-18.009911914119815,30.93303457508359
3129,10388,MUSINGARABWI,Masvingo,Primary,Masvingo,P3,-20.387341914119812,30.77849457508359
1491,5163,VELVEKIA  ,Mashonaland Central,Primary,Guruve,P3,-16.927461914119814,30.60191457508359
1457,5128,CHIMURENGA 3,Mashonaland Central,Primary,Mazowe,P3,-16.901601914119812,31.00335457508359
1503,5176,MINDA,Mashonaland Central,Primary,Muzarabani,P3,-16.632981914119814,30.96426457508359
2007,6695,HOME PARK,Mashonaland East,Primary,Murehwa,P3,-18.185691914119815,31.720204575083592
2124,6900,RUSUNUNGUKO,Mashonaland East,Primary,Chikomba,P3,-18.776181914119814,30.53803457508359
504,2528,CHITORA,Manicaland,Primary,Mutare,P3,-19.329901914119812,32.598724575083594
512,2538,MAMBWERE,Manicaland,Primary,Mutare,P3,-19.287911914119814,32.618244575083594
4050,12442,MWEMBA,Matabeleland North,Primary,Hwange,P3,-18.196131914119814,26.57958457508359
3609,10992,CHIKWALAKWALA,Masvingo,Primary,Mwenezi,P3,-21.076361914119815,30.47313457508359
2919,10178,VINGA ,Masvingo,Primary,Mwenezi,P3,-21.094201914119814,30.20033457508359
5319,16641,CHEBVUTE,Midlands,Primary,Mberengwa,P3,-20.824851914119815,29.85779457508359
5254,16574,SENGEZI,Midlands,Primary,Kwekwe,P3,-18.545441914119813,29.38963457508359
70,1082,NHARIRA,Harare,Primary,Mbare Hatfield,P3,-17.872381914119813,31.02166457508359
474,2483,NHARIRA,Manicaland,Primary,Mutare,P3,-19.294541914119815,32.241904575083595
3917,12302,GUNDWANE,Matabeleland North,Primary,Lupane,P3,-18.635591914119814,27.442514575083592
1253,4302,LUCKNOW ,Mashonaland Central,Primary,Mazowe,P3,-17.127501914119815,30.83754457508359
4611,14312,FUMUGWE,Matabeleland South,Primary,Matobo,P3,-20.664221914119814,28.24203457508359
833,2870,GUTAURARE,Manicaland,Primary,Mutare,P3,-19.379341914119813,32.587354575083594
387,2371,MARUME ,Manicaland,Primary,Buhera,P3,-19.298191914119812,31.450304575083592
3279,10617,MBIRASHAVA,Masvingo,Primary,Bikita,P3,-20.027101914119815,31.73201457508359
2537,8484,KETSANGA,Mashonaland West,Primary,Hurungwe,P3,-16.586261914119813,29.85361457508359
5624,17958,GUMA RANGE,Midlands,Primary,Gweru,P3,-19.347871914119814,29.89337457508359
1334,4399,CHAPINDUKA,Mashonaland Central,Primary,Rushinga,P3,-16.671451914119814,32.579494575083594
977,3036,MOODIESVILLE,Manicaland,Primary,Makoni,P3,-18.382921914119812,32.049744575083594
1719,6394,CHIMOYO,Mashonaland East,Primary,Mutoko,P3,-17.377211914119815,32.46966457508359
1304,4369,RUSUNUNGUKO,Mashonaland Central,Primary,Shamva,P3,-17.078291914119813,31.42021457508359
2841,9063,CHEMBIZI,Mashonaland West,Primary,Hurungwe,P3,-17.110511914119815,28.97194457508359
3174,10436,CHADA,Masvingo,Primary,Bikita,P3,-20.124291914119812,31.76099457508359
930,2985,KUFAKWATENZI,Manicaland,Primary,Buhera,P3,-19.929571914119812,32.2973845750836
5179,16494,VUNGU COUNCIL,Midlands,Primary,Gweru,P3,-19.404741914119814,29.45777457508359
3995,12387,ZIGA,Matabeleland North,Primary,Tsholotsho,P3,-19.218461914119814,27.45009457508359
2879,9106,ZVENGOMA PRIMARY,Mashonaland West,Primary,Hurungwe,P3,-17.116501914119812,29.13300457508359
5306,16628,MAWISA,Midlands,Primary,Gokwe South,P3,-18.402651914119815,28.38456457508359
4198,12594,SIGONDE,Matabeleland North,Primary,Umguza,P3,-19.501091914119815,28.25522457508359
4761,14464,RANGEMORE,Matabeleland South,Primary,Insiza,P3,-20.170111914119815,29.49025457508359
3379,10718,CHEHAYA PRIMARY,Masvingo,Primary,Chivi,P3,-20.864871914119814,30.76879457508359
3727,12019,THEMBISO CHILDREN'S HOME,Bulawayo,Primary,Khami,P2,-20.113581914119813,28.50527457508359
2852,9076,HILLTOP ,Mashonaland West,Primary,Hurungwe,P3,-16.566631914119814,29.56657457508359
